[{"OBJECT_NAME":"STARLINK-36146","OBJECT_ID":"2026-005Y","EPOCH":"2026-03-09T12:06:16.216704","MEAN_MOTION":15.27600398,"ECCENTRICITY":0.00020689,"INCLINATION":42.9999,"RA_OF_ASC_NODE":239.4128,"ARG_OF_PERICENTER":283.3401,"MEAN_ANOMALY":76.722,"EPHEMERIS_TYPE":0,"CLASSIFICATION_TYPE":"U","NORAD_CAT_ID":67426,"ELEMENT_SET_NO":999,"REV_AT_EPOCH":865,"BSTAR":0.0011987752,"MEAN_MOTION_DOT":0.00032894,"MEAN_MOTION_DDOT":0},{"OBJECT_NAME":"CZ-4B DEB","OBJECT_ID":"2006-015E","EPOCH":"2026-03-09T20:34:53.082912","MEAN_MOTION":15.19885806,"ECCENTRICITY":0.00461993,"INCLINATION":98.0565,"RA_OF_ASC_NODE":201.7753,"ARG_OF_PERICENTER":62.4887,"MEAN_ANOMALY":298.1031,"EPHEMERIS_TYPE":0,"CLASSIFICATION_TYPE":"U","NORAD_CAT_ID":29538,"ELEMENT_SET_NO":999,"REV_AT_EPOCH":5389,"BSTAR":0.0022587151,"MEAN_MOTION_DOT":0.00050103,"MEAN_MOTION_DDOT":0}]
